{"type": "FeatureCollection", "features": [ {"type": "Feature", "properties": {"norad_id": 30071, "name": "FENGYUN 1C DEB", "group": "fengyun-1c-debris", "lat": -21.713504842706186, "lon": 102.29233695468183, "alt_km": 724.9889074860212, "timestamp": "2025-12-25T03:55:56.631491+00:00", "meta": {"OBJECT_NAME": "FENGYUN 1C DEB", "OBJECT_ID": "1999-025PY", "EPOCH": "2025-12-24T05:09:57.670848", "MEAN_MOTION": 14.52342438, "ECCENTRICITY": 0.00381895, "INCLINATION": 98.6588, "RA_OF_ASC_NODE": 97.8352, "ARG_OF_PERICENTER": 74.9177, "MEAN_ANOMALY": 346.822, "EPHEMERIS_TYPE": 0, "CLASSIFICATION_TYPE": "U", "NORAD_CAT_ID": 30071, "ELEMENT_SET_NO": 999, "REV_AT_EPOCH": 98393, "BSTAR": 0.0024427121, "MEAN_MOTION_DOT": 9.999e-05, "MEAN_MOTION_DDOT": 0}, "tle": {"line1": "1 30071U 99025PY  25358.21525082  .00009999  00000+0  24427-2 0  9990", "line2": "2 30071  98.6588  97.8352 0038189  74.9177 346.8220 14.52342438983938"}}, "geometry": {"type": "Point", "coordinates": [102.29233695468183, -21.713504842706186]}}, {"type": "Feature", "properties": {"norad_id": 30072, "name": "FENGYUN 1C DEB", "group": "fengyun-1c-debris", "lat": 20.2308702615222, "lon": 144.7490529993926, "alt_km": 799.7154602806104, "timestamp": "2025-12-25T03:55:56.631501+00:00", "meta": {"OBJECT_NAME": "FENGYUN 1C DEB", "OBJECT_ID": "1999-025PZ", "EPOCH": "2025-12-23T21:46:39.071424", "MEAN_MOTION": 14.37978191, "ECCENTRICITY": 0.0060157, "INCLINATION": 99.0769, "RA_OF_ASC_NODE": 146.8001, "ARG_OF_PERICENTER": 240.3637, "MEAN_ANOMALY": 119.1548, "EPHEMERIS_TYPE": 0, "CLASSIFICATION_TYPE": "U", "NORAD_CAT_ID": 30072, "ELEMENT_SET_NO": 999, "REV_AT_EPOCH": 97331, "BSTAR": 0.0032942, "MEAN_MOTION_DOT": 0.00010136, "MEAN_MOTION_DDOT": 0}, "tle": {"line1": "1 30072U 99025PZ  25357.90739666  .00010136  00000+0  32942-2 0  9997", "line2": "2 30072  99.0769 146.8001 0060157 240.3637 119.1548 14.37978191973310"}}, "geometry": {"type": "Point", "coordinates": [144.7490529993926, 20.2308702615222]}}, {"type": "Feature", "properties": {"norad_id": 30073, "name": "FENGYUN 1C DEB", "group": "fengyun-1c-debris", "lat": 27.06204392537095, "lon": 157.90976989358316, "alt_km": 830.2959344753644, "timestamp": "2025-12-25T03:55:56.631511+00:00", "meta": {"OBJECT_NAME": "FENGYUN 1C DEB", "OBJECT_ID": "1999-025QA", "EPOCH": "2025-12-24T20:43:38.324928", "MEAN_MOTION": 14.18734339, "ECCENTRICITY": 0.0052839, "INCLINATION": 99.4126, "RA_OF_ASC_NODE": 332.7299, "ARG_OF_PERICENTER": 246.3088, "MEAN_ANOMALY": 174.2622, "EPHEMERIS_TYPE": 0, "CLASSIFICATION_TYPE": "U", "NORAD_CAT_ID": 30073, "ELEMENT_SET_NO": 999, "REV_AT_EPOCH": 97097, "BSTAR": 0.0013759, "MEAN_MOTION_DOT": 2.848e-05, "MEAN_MOTION_DDOT": 0}, "tle": {"line1": "1 30073U 99025QA  25358.86363802  .00002848  00000+0  13759-2 0  9995", "line2": "2 30073  99.4126 332.7299 0052839 246.3088 174.2622 14.18734339970978"}}, "geometry": {"type": "Point", "coordinates": [157.90976989358316, 27.06204392537095]}}, {"type": "Feature", "properties": {"norad_id": 30074, "name": "FENGYUN 1C DEB", "group": "fengyun-1c-debris", "lat": 6.637948000524439, "lon": 64.56929388194017, "alt_km": 875.3635228524481, "timestamp": "2025-12-25T03:55:56.631521+00:00", "meta": {"OBJECT_NAME": "FENGYUN 1C DEB", "OBJECT_ID": "1999-025QB", "EPOCH": "2025-12-21T03:01:28.048512", "MEAN_MOTION": 14.12895962, "ECCENTRICITY": 0.00969654, "INCLINATION": 99.1289, "RA_OF_ASC_NODE": 61.526, "ARG_OF_PERICENTER": 128.6907, "MEAN_ANOMALY": 232.2986, "EPHEMERIS_TYPE": 0, "CLASSIFICATION_TYPE": "U", "NORAD_CAT_ID": 30074, "ELEMENT_SET_NO": 999, "REV_AT_EPOCH": 96780, "BSTAR": 0.0010443796, "MEAN_MOTION_DOT": 1.987e-05, "MEAN_MOTION_DDOT": 0}, "tle": {"line1": "1 30074U 99025QB  25355.12601908  .00001987  00000+0  10444-2 0  9995", "line2": "2 30074  99.1289  61.5260 0096965 128.6907 232.2986 14.12895962967801"}}, "geometry": {"type": "Point", "coordinates": [64.56929388194017, 6.637948000524439]}}, {"type": "Feature", "properties": {"norad_id": 30075, "name": "FENGYUN 1C DEB", "group": "fengyun-1c-debris", "lat": -79.65667843496426, "lon": 114.25065908230586, "alt_km": 970.2774759626855, "timestamp": "2025-12-25T03:55:56.631532+00:00", "meta": {"OBJECT_NAME": "FENGYUN 1C DEB", "OBJECT_ID": "1999-025QC", "EPOCH": "2025-12-24T16:53:51.252288", "MEAN_MOTION": 13.92537717, "ECCENTRICITY": 0.0091463, "INCLINATION": 99.3599, "RA_OF_ASC_NODE": 49.1403, "ARG_OF_PERICENTER": 144.9128, "MEAN_ANOMALY": 344.9872, "EPHEMERIS_TYPE": 0, "CLASSIFICATION_TYPE": "U", "NORAD_CAT_ID": 30075, "ELEMENT_SET_NO": 999, "REV_AT_EPOCH": 96231, "BSTAR": 2.2688e-05, "MEAN_MOTION_DOT": -1.5e-07, "MEAN_MOTION_DDOT": 0}, "tle": {"line1": "1 30075U 99025QC  25358.70406542 -.00000015  00000+0  22688-4 0  9997", "line2": "2 30075  99.3599  49.1403 0091463 144.9128 344.9872 13.92537717962317"}}, "geometry": {"type": "Point", "coordinates": [114.25065908230586, -79.65667843496426]}}, {"type": "Feature", "properties": {"norad_id": 30076, "name": "FENGYUN 1C DEB", "group": "fengyun-1c-debris", "lat": -37.67907064978737, "lon": -7.254088329544798, "alt_km": 1002.2499239490562, "timestamp": "2025-12-25T03:55:56.631542+00:00", "meta": {"OBJECT_NAME": "FENGYUN 1C DEB", "OBJECT_ID": "1999-025QD", "EPOCH": "2025-12-23T10:51:05.357376", "MEAN_MOTION": 13.76297907, "ECCENTRICITY": 0.01757376, "INCLINATION": 99.2393, "RA_OF_ASC_NODE": 343.8629, "ARG_OF_PERICENTER": 65.7487, "MEAN_ANOMALY": 61.6486, "EPHEMERIS_TYPE": 0, "CLASSIFICATION_TYPE": "U", "NORAD_CAT_ID": 30076, "ELEMENT_SET_NO": 999, "REV_AT_EPOCH": 95041, "BSTAR": 0.00028623377, "MEAN_MOTION_DOT": 2.71e-06, "MEAN_MOTION_DDOT": 0}, "tle": {"line1": "1 30076U 99025QD  25357.45214534  .00000271  00000+0  28623-3 0  9994", "line2": "2 30076  99.2393 343.8629 0175737  65.7487  61.6486 13.76297907950416"}}, "geometry": {"type": "Point", "coordinates": [-7.254088329544798, -37.67907064978737]}}, {"type": "Feature", "properties": {"norad_id": 30077, "name": "FENGYUN 1C DEB", "group": "fengyun-1c-debris", "lat": -2.291659846864163, "lon": -165.92329729181495, "alt_km": 862.0540497229767, "timestamp": "2025-12-25T03:55:56.631552+00:00", "meta": {"OBJECT_NAME": "FENGYUN 1C DEB", "OBJECT_ID": "1999-025QE", "EPOCH": "2025-12-24T13:59:51.923904", "MEAN_MOTION": 14.07080389, "ECCENTRICITY": 0.0020659, "INCLINATION": 98.7574, "RA_OF_ASC_NODE": 13.8678, "ARG_OF_PERICENTER": 229.322, "MEAN_ANOMALY": 253.6086, "EPHEMERIS_TYPE": 0, "CLASSIFICATION_TYPE": "U", "NORAD_CAT_ID": 30077, "ELEMENT_SET_NO": 999, "REV_AT_EPOCH": 97279, "BSTAR": 9.8732e-05, "MEAN_MOTION_DOT": 1.23e-06, "MEAN_MOTION_DDOT": 0}, "tle": {"line1": "1 30077U 99025QE  25358.58323986  .00000123  00000+0  98732-4 0  9997", "line2": "2 30077  98.7574  13.8678 0020659 229.3220 253.6086 14.07080389972798"}}, "geometry": {"type": "Point", "coordinates": [-165.92329729181495, -2.291659846864163]}}, {"type": "Feature", "properties": {"norad_id": 30078, "name": "FENGYUN 1C DEB", "group": "fengyun-1c-debris", "lat": 68.72030832502085, "lon": 50.544262365023705, "alt_km": 846.1004525801027, "timestamp": "2025-12-25T03:55:56.631563+00:00", "meta": {"OBJECT_NAME": "FENGYUN 1C DEB", "OBJECT_ID": "1999-025QF", "EPOCH": "2025-12-24T19:43:47.311104", "MEAN_MOTION": 14.232015, "ECCENTRICITY": 0.005351, "INCLINATION": 98.8317, "RA_OF_ASC_NODE": 73.7289, "ARG_OF_PERICENTER": 245.4497, "MEAN_ANOMALY": 235.1099, "EPHEMERIS_TYPE": 0, "CLASSIFICATION_TYPE": "U", "NORAD_CAT_ID": 30078, "ELEMENT_SET_NO": 999, "REV_AT_EPOCH": 97285, "BSTAR": 0.0012918, "MEAN_MOTION_DOT": 2.919e-05, "MEAN_MOTION_DDOT": 0}, "tle": {"line1": "1 30078U 99025QF  25358.82207536  .00002919  00000+0  12918-2 0  9992", "line2": "2 30078  98.8317  73.7289 0053510 245.4497 235.1099 14.23201500972859"}}, "geometry": {"type": "Point", "coordinates": [50.544262365023705, 68.72030832502085]}}, {"type": "Feature", "properties": {"norad_id": 30079, "name": "FENGYUN 1C DEB", "group": "fengyun-1c-debris", "lat": -66.05329093686267, "lon": -146.42508904465393, "alt_km": 838.8399854472564, "timestamp": "2025-12-25T03:55:56.631573+00:00", "meta": {"OBJECT_NAME": "FENGYUN 1C DEB", "OBJECT_ID": "1999-025QG", "EPOCH": "2025-12-24T17:02:37.436928", "MEAN_MOTION": 14.00800087, "ECCENTRICITY": 0.0085051, "INCLINATION": 99.0326, "RA_OF_ASC_NODE": 54.1141, "ARG_OF_PERICENTER": 265.2858, "MEAN_ANOMALY": 215.9965, "EPHEMERIS_TYPE": 0, "CLASSIFICATION_TYPE": "U", "NORAD_CAT_ID": 30079, "ELEMENT_SET_NO": 999, "REV_AT_EPOCH": 96705, "BSTAR": 0.00013584, "MEAN_MOTION_DOT": 1.64e-06, "MEAN_MOTION_DDOT": 0}, "tle": {"line1": "1 30079U 99025QG  25358.71015552  .00000164  00000+0  13584-3 0  9997", "line2": "2 30079  99.0326  54.1141 0085051 265.2858 215.9965 14.00800087967053"}}, "geometry": {"type": "Point", "coordinates": [-146.42508904465393, -66.05329093686267]}}, {"type": "Feature", "properties": {"norad_id": 30080, "name": "FENGYUN 1C DEB", "group": "fengyun-1c-debris", "lat": 40.6783112093203, "lon": -28.26883753885609, "alt_km": 760.2319046117291, "timestamp": "2025-12-25T03:55:56.631584+00:00", "meta": {"OBJECT_NAME": "FENGYUN 1C DEB", "OBJECT_ID": "1999-025QH", "EPOCH": "2025-12-23T21:22:37.317216", "MEAN_MOTION": 14.10833773, "ECCENTRICITY": 0.0133481, "INCLINATION": 98.6996, "RA_OF_ASC_NODE": 338.0599, "ARG_OF_PERICENTER": 29.1188, "MEAN_ANOMALY": 29.1354, "EPHEMERIS_TYPE": 0, "CLASSIFICATION_TYPE": "U", "NORAD_CAT_ID": 30080, "ELEMENT_SET_NO": 999, "REV_AT_EPOCH": 97395, "BSTAR": 0.00030906, "MEAN_MOTION_DOT": 5.59e-06, "MEAN_MOTION_DDOT": 0}, "tle": {"line1": "1 30080U 99025QH  25357.89070969  .00000559  00000+0  30906-3 0  9995", "line2": "2 30080  98.6996 338.0599 0133481  29.1188  29.1354 14.10833773973950"}}, "geometry": {"type": "Point", "coordinates": [-28.26883753885609, 40.6783112093203]}}]}